HORUS 2                 
1 55844U 23032A   26203.26416666  .00005715  00000+0  24314-3 0  9990
2 55844  97.3517 277.9579 0001546 135.7076 224.4285 15.23394527186824
GLOBAL-19               
1 55982U 23041B   26202.44160937  .00011345  00000+0  29512-3 0  9990
2 55982  42.0028   2.0117 0010336 256.8513 103.1174 15.38794014187208
ION SCV-010             
1 56192U 23054Q   26203.16816492  .00004329  00000+0  16834-3 0  9999
2 56192  97.3732  92.2208 0014609  82.4393 277.8505 15.26467577181530
TELEOS-2                
1 56310U 23057C   26202.94803935  .00004955  00000+0  36619-3 0  9995
2 56310   9.9894 311.0863 0000829 278.8483  81.1637 14.96409325178013
SNIPE 4                 
1 56744U 23072B   26203.23340611  .00026235  00000+0  58385-3 0  9992
2 56744  97.5231  50.3792 0005493 179.4432 180.6823 15.43604759175513
SNIPE 2                 
1 56745U 23072C   26203.29884846  .00033203  00000+0  62418-3 0  9997
2 56745  97.5219  53.7447 0003913 201.5551 158.5535 15.48505500175678
2023-072G               
1 56749U 23072G   26203.27712302  .00035053  00000+0  57338-3 0  9996
2 56749  97.4880  52.5692 0003125 181.9087 178.2154 15.52443094175900
GEISAT PRECURSOR        
1 56934U 23084C   26203.29307837  .00007687  00000+0  22824-3 0  9994
2 56934  97.6262 345.4218 0005085 201.6493 158.4536 15.35079705172915
BLACKJACK ACES-3        
1 56950U 23084U   26203.28949244  .00004735  00000+0  23073-3 0  9993
2 56950  97.6250 338.7633 0001338 189.8365 170.2843 15.18835543172495
BLACKJACK ACES-2        
1 56955U 23084Z   26202.83447870  .00006292  00000+0  30584-3 0  9991
2 56955  97.6248 338.3876 0001990 131.4856 228.6549 15.18790955172436
BLACKJACK ACES-1        
1 56956U 23084AA  26202.82193663  .00006212  00000+0  30192-3 0  9996
2 56956  97.6238 338.1457 0002237 111.4445 248.7028 15.18795174122153
ION SCV-011             
1 56957U 23084AB  26203.27480937  .00005012  00000+0  18027-3 0  9990
2 56957  98.1386  33.8143 0005769 275.6252  84.4327 15.29144966171179
GHOST-3                 
1 56958U 23084AC  26202.99528073  .00019451  00000+0  36103-3 0  9990
2 56958  97.6255 353.4713 0007191 162.6635 197.4862 15.48962054173408
AFR-1                   
1 56964U 23084AJ  26203.31735810  .00005031  00000+0  18226-3 0  9998
2 56964  97.6313 340.8697 0009781 207.4273 152.6451 15.28820800172590
METEOR-M2 3             
1 57166U 23091A   26203.29984214 -.00000017  00000+0  11195-4 0  9991
2 57166  98.6064 257.5559 0005069  74.4584 285.7154 14.24049316159517
UMKA 1 (RS40S)          
1 57172U 23091G   26203.22454504  .00005640  00000+0  25572-3 0  9994
2 57172  97.5028 261.7914 0012326   5.5532 354.5837 15.21173875169336
2023-091H               
1 57173U 23091H   26203.19555919  .00012518  00000+0  44214-3 0  9999
2 57173  97.5027 266.6843 0008836   0.5260 359.5988 15.29316795169650
2023-091J               
1 57174U 23091J   26203.28226191  .00004088  00000+0  22738-3 0  9997
2 57174  97.5036 255.8790 0013843  33.8290 326.3822 15.14146601168949
CUBEBEL 2 (EU11S)       
1 57175U 23091K   26203.24869331  .00013806  00000+0  47809-3 0  9997
2 57175  97.5029 266.7948 0008772   1.6377 358.4890 15.29939877169664
SITRO-AIS 5 (KATYS)     
1 57176U 23091L   26203.25962370  .00012909  00000+0  44394-3 0  9995
2 57176  97.5039 267.5071 0009941 346.4977  13.5996 15.30172036169706
ZORKIY-2M 1             
1 57177U 23091M   26203.27412441  .00006205  00000+0  27989-3 0  9990
2 57177  97.5069 262.1337 0012670   2.0301 358.0984 15.21309198169339
CUBESX-HSE 3 (RS42S)    
1 57178U 23091N   26203.25686213  .00014071  00000+0  45707-3 0  9997
2 57178  97.5070 269.3038 0009003 335.0192  25.0612 15.32004264169799
MONITOR-3 (RS58S)       
1 57180U 23091Q   26203.29520309  .00010455  00000+0  37942-3 0  9991
2 57180  97.5062 267.0109 0010256 343.7140  16.3769 15.28465948169654
MONITOR-4 (RS57S)       
1 57182U 23091S   26203.27229566  .00010823  00000+0  39162-3 0  9997
2 57182  97.5055 266.9609 0010273 344.0585  16.0330 15.28552951169659
MONITOR-2 (RS39S)       
1 57184U 23091U   26203.29062235  .00004586  00000+0  22091-3 0  9991
2 57184  97.5051 261.3491 0010670 359.7951   0.3277 15.19197494169288
SVYATOBOR 1 (RS60S)     
1 57187U 23091X   26203.25120983  .00009512  00000+0  35979-3 0  9998
2 57187  97.5068 267.2715 0008025 338.2806  21.8092 15.27142504169661
HORS 1                  
1 57188U 23091Y   26203.23413558  .00008804  00000+0  33210-3 0  9999
2 57188  97.5045 267.0123 0007507 338.5396  21.5527 15.27262781169669
VIZARD-METEO (RS38S)    
1 57189U 23091Z   26203.24857889  .00017641  00000+0  48853-3 0  9998
2 57189  97.5070 273.4594 0005195 308.7320  51.3459 15.37029018170075
SITRO-AIS 6 (CHIRKIN)   
1 57192U 23091AC  26203.25540147  .00010501  00000+0  40407-3 0  9994
2 57192  97.5047 266.4326 0010443 351.2765   8.8291 15.26525884169637
SITRO-AIS 8 (ANOKHIN)   
1 57193U 23091AD  26203.27902119  .00014584  00000+0  45934-3 0  9993
2 57193  97.5035 269.2620 0008820 341.1495  18.9419 15.32986636169825
