OBJECT_NAME,OBJECT_ID,EPOCH,MEAN_MOTION,ECCENTRICITY,INCLINATION,RA_OF_ASC_NODE,ARG_OF_PERICENTER,MEAN_ANOMALY,EPHEMERIS_TYPE,CLASSIFICATION_TYPE,NORAD_CAT_ID,ELEMENT_SET_NO,REV_AT_EPOCH,BSTAR,MEAN_MOTION_DOT,MEAN_MOTION_DDOT
HORUS 2,2023-032A,2026-07-22T06:20:23.999424,15.23394527,.00015467,97.3517,277.9579,135.7076,224.4285,0,U,55844,999,18682,.24313708E-3,.5715E-4,0
GLOBAL-19,2023-041B,2026-07-21T10:35:55.049568,15.38794014,.00103367,42.0028,2.0117,256.8513,103.1174,0,U,55982,999,18720,.29511543E-3,.11345E-3,0
ION SCV-010,2023-054Q,2026-07-22T04:02:09.449088,15.26467577,.00146092,97.3732,92.2208,82.4393,277.8505,0,U,56192,999,18153,.16834442E-3,.4329E-4,0
TELEOS-2,2023-057C,2026-07-21T22:45:10.599840,14.96409325,.00008293,9.9894,311.0863,278.8483,81.1637,0,U,56310,999,17801,.36619339E-3,.4955E-4,0
SNIPE 4,2023-072B,2026-07-22T05:36:06.287904,15.43604759,.00054936,97.5231,50.3792,179.4432,180.6823,0,U,56744,999,17551,.58385201E-3,.26235E-3,0
SNIPE 2,2023-072C,2026-07-22T07:10:20.506944,15.48505500,.00039131,97.5219,53.7447,201.5551,158.5535,0,U,56745,999,17567,.62418393E-3,.33203E-3,0
2023-072G,2023-072G,2026-07-22T06:39:03.428928,15.52443094,.00031251,97.4880,52.5692,181.9087,178.2154,0,U,56749,999,17590,.57338063E-3,.35053E-3,0
GEISAT PRECURSOR,2023-084C,2026-07-22T07:02:01.971168,15.35079705,.00050859,97.6262,345.4218,201.6493,158.4536,0,U,56934,999,17291,.22823829E-3,.7687E-4,0
BLACKJACK ACES-3,2023-084U,2026-07-22T06:56:52.146816,15.18835543,.00013387,97.6250,338.7633,189.8365,170.2843,0,U,56950,999,17249,.23072944E-3,.4735E-4,0
BLACKJACK ACES-2,2023-084Z,2026-07-21T20:01:38.959680,15.18790955,.000199,97.6248,338.3876,131.4856,228.6549,0,U,56955,999,17243,.30583615E-3,.6292E-4,0
BLACKJACK ACES-1,2023-084AA,2026-07-21T19:43:35.324832,15.18795174,.00022377,97.6238,338.1457,111.4445,248.7028,0,U,56956,999,12215,.30192207E-3,.6212E-4,0
ION SCV-011,2023-084AB,2026-07-22T06:35:43.529568,15.29144966,.00057692,98.1386,33.8143,275.6252,84.4327,0,U,56957,999,17117,.18027368E-3,.5012E-4,0
GHOST-3,2023-084AC,2026-07-21T23:53:12.255072,15.48962054,.00071914,97.6255,353.4713,162.6635,197.4862,0,U,56958,999,17340,.36103161E-3,.19451E-3,0
AFR-1,2023-084AJ,2026-07-22T07:36:59.739840,15.28820800,.00097819,97.6313,340.8697,207.4273,152.6451,0,U,56964,999,17259,.18225918E-3,.5031E-4,0
METEOR-M2 3,2023-091A,2026-07-22T07:11:46.360896,14.24049316,.00050693,98.6064,257.5559,74.4584,285.7154,0,U,57166,999,15951,.1119478E-4,-.17E-6,0
UMKA 1 (RS40S),2023-091G,2026-07-22T05:23:20.691456,15.21173875,.00123263,97.5028,261.7914,5.5532,354.5837,0,U,57172,999,16933,.25572396E-3,.564E-4,0
2023-091H,2023-091H,2026-07-22T04:41:36.314016,15.29316795,.00088363,97.5027,266.6843,0.5260,359.5988,0,U,57173,999,16965,.44214261E-3,.12518E-3,0
2023-091J,2023-091J,2026-07-22T06:46:27.429024,15.14146601,.00138432,97.5036,255.8790,33.8290,326.3822,0,U,57174,999,16894,.22737602E-3,.4088E-4,0
CUBEBEL 2 (EU11S),2023-091K,2026-07-22T05:58:07.101984,15.29939877,.0008772,97.5029,266.7948,1.6377,358.4890,0,U,57175,999,16966,.47809043E-3,.13806E-3,0
SITRO-AIS 5 (KATYS),2023-091L,2026-07-22T06:13:51.487680,15.30172036,.0009941,97.5039,267.5071,346.4977,13.5996,0,U,57176,999,16970,.44394417E-3,.12909E-3,0
ZORKIY-2M 1,2023-091M,2026-07-22T06:34:44.349024,15.21309198,.00126707,97.5069,262.1337,2.0301,358.0984,0,U,57177,999,16933,.27988799E-3,.6205E-4,0
CUBESX-HSE 3 (RS42S),2023-091N,2026-07-22T06:09:52.888032,15.32004264,.00090037,97.5070,269.3038,335.0192,25.0612,0,U,57178,999,16979,.45706649E-3,.14071E-3,0
MONITOR-3 (RS58S),2023-091Q,2026-07-22T07:05:05.546976,15.28465948,.00102569,97.5062,267.0109,343.7140,16.3769,0,U,57180,999,16965,.37941805E-3,.10455E-3,0
MONITOR-4 (RS57S),2023-091S,2026-07-22T06:32:06.345024,15.28552951,.00102739,97.5055,266.9609,344.0585,16.0330,0,U,57182,999,16965,.39161947E-3,.10823E-3,0
MONITOR-2 (RS39S),2023-091U,2026-07-22T06:58:29.771040,15.19197494,.00106706,97.5051,261.3491,359.7951,0.3277,0,U,57184,999,16928,.22091477E-3,.4586E-4,0
SVYATOBOR 1 (RS60S),2023-091X,2026-07-22T06:01:44.529312,15.27142504,.00080254,97.5068,267.2715,338.2806,21.8092,0,U,57187,999,16966,.35978866E-3,.9512E-4,0
HORS 1,2023-091Y,2026-07-22T05:37:09.314112,15.27262781,.00075074,97.5045,267.0123,338.5396,21.5527,0,U,57188,999,16966,.33210413E-3,.8804E-4,0
VIZARD-METEO (RS38S),2023-091Z,2026-07-22T05:57:57.216096,15.37029018,.00051959,97.5070,273.4594,308.7320,51.3459,0,U,57189,999,17007,.48852654E-3,.17641E-3,0
SITRO-AIS 6 (CHIRKIN),2023-091AC,2026-07-22T06:07:46.687008,15.26525884,.00104432,97.5047,266.4326,351.2765,8.8291,0,U,57192,999,16963,.40407096E-3,.10501E-3,0
SITRO-AIS 8 (ANOKHIN),2023-091AD,2026-07-22T06:41:47.430816,15.32986636,.00088206,97.5035,269.2620,341.1495,18.9419,0,U,57193,999,16982,.45934031E-3,.14584E-3,0
